{"fetched_at":"2026-03-29T16:36:15Z","count":15609,"tles":[{"name":"LILIUM-1","line1":"1 58467U 23185F   26087.93626957  .00190462  00000+0  14129-2 0  9999","line2":"2 58467  97.3275 167.6265 0003956 138.7157 221.4406 15.72300040129893","category":"Other"}]}