{
  "norad_id": 58467,
  "name": "LILIUM-1",
  "history": [
    {
      "epoch": "2026-03-28T22:28:13.690848Z",
      "apogee_km": 354.98779444998763,
      "perigee_km": 349.66265273867975,
      "latitude_deg": -1.7818560376492934e-05,
      "longitude_deg": 4.219891739648061,
      "height_km": 357.48531424212473,
      "semi_major_axis_km": 6730.462223594333,
      "eccentricity": 0.0003956,
      "inclination_deg": 97.3275,
      "raan_deg": 167.6265,
      "arg_perigee_deg": 138.7157,
      "mean_anomaly_deg": 221.4406,
      "mean_motion_rev_day": 15.7230004
    }
  ]
}